SAUDISAT 1C             
1 27607U 02058C   23193.41450846  .00000947  00000+0  14814-3 0  9997
2 27607  64.5528 187.5827 0066613 219.6080 140.0147 14.77387122106163
SAUDISAT 2              
1 28371U 04025F   23193.34939436  .00000409  00000+0  10584-3 0  9994
2 28371  98.4336 157.2232 0025168 349.2388  10.8267 14.54965835  9976
SAUDISAT 3              
1 31118U 07012B   23192.45168937  .00000383  00000+0  72391-4 0  9993
2 31118  98.0141 136.2603 0015989  41.6755 318.5666 14.69717590870289
PISAT                   
1 41784U 16059B   23192.58251444  .00001006  00000+0  19603-3 0  9993
2 41784  97.8680 224.8550 0031658  20.4657 339.7807 14.64763466362631
FLYING LAPTOP           
1 42831U 17042G   23193.48780373  .00001771  00000+0  17430-3 0  9993
2 42831  97.3904  29.7065 0014503 136.6693 223.5671 14.93173412326268
SALSAT                  
1 46495U 20068K   23193.33809944  .00005016  00000+0  32971-3 0  9998
2 46495  97.7702 141.6117 0016477  39.8934 320.3501 15.07957618152869
